{
"type": "FeatureCollection",
"name": "skiing",
"crs": { "type": "name", "properties": { "name": "urn:ogc:def:crs:OGC:1.3:CRS84" } },
"features": [
{ "type": "Feature", "properties": { "full_id": "n2623931273", "osm_id": "2623931273", "osm_type": "node", "sport": "skiing", "wheelchair": "limited", "website": "https://appskimtn.com/", "phone": "+1 828-295-7828", "payment:debit_cards": "yes", "payment:credit_cards": "yes", "payment:cash": "no", "name": "Appalachian Ski Mountain", "leisure": "sports_centre", "internet_access:fee": "no", "internet_access": "wlan", "fee": "yes", "contact:twitter": "https://twitter.com/App_Ski_Mtn", "contact:instagram": "https://www.instagram.com/appalachianskimtn", "contact:facebook": "https://www.facebook.com/appskimtn", "check_date": "2024-02-24" }, "geometry": { "type": "Point", "coordinates": [ -81.6623721, 36.1744091 ] } }
]
}
