{
"type": "FeatureCollection",
"name": "trailhead",
"crs": { "type": "name", "properties": { "name": "urn:ogc:def:crs:OGC:1.3:CRS84" } },
"features": [
{ "type": "Feature", "properties": { "full_id": "n195938278", "osm_id": "195938278", "osm_type": "node", "highway": "trailhead", "addr:street": null, "addr:state": null, "addr:postcode": null, "addr:housenumber": null, "addr:city": null, "fee": null, "operator": null, "access": null, "name": "Warrior Creek", "bicycle": "yes" }, "geometry": { "type": "Point", "coordinates": [ -81.2934397, 36.1057175 ] } },
{ "type": "Feature", "properties": { "full_id": "n5573607501", "osm_id": "5573607501", "osm_type": "node", "highway": "trailhead", "addr:street": null, "addr:state": null, "addr:postcode": null, "addr:housenumber": null, "addr:city": null, "fee": null, "operator": null, "access": "yes", "name": "Headwaters Hub", "bicycle": "yes" }, "geometry": { "type": "Point", "coordinates": [ -81.3007304, 36.1140451 ] } },
{ "type": "Feature", "properties": { "full_id": "n6039869741", "osm_id": "6039869741", "osm_type": "node", "highway": "trailhead", "addr:street": null, "addr:state": null, "addr:postcode": null, "addr:housenumber": null, "addr:city": null, "fee": null, "operator": null, "access": null, "name": "Boone United Trailhead", "bicycle": null }, "geometry": { "type": "Point", "coordinates": [ -81.6657417, 36.2234587 ] } },
{ "type": "Feature", "properties": { "full_id": "n7566932004", "osm_id": "7566932004", "osm_type": "node", "highway": "trailhead", "addr:street": null, "addr:state": null, "addr:postcode": null, "addr:housenumber": null, "addr:city": null, "fee": null, "operator": null, "access": null, "name": null, "bicycle": null }, "geometry": { "type": "Point", "coordinates": [ -81.9254251, 35.9277016 ] } },
{ "type": "Feature", "properties": { "full_id": "n7569906995", "osm_id": "7569906995", "osm_type": "node", "highway": "trailhead", "addr:street": null, "addr:state": null, "addr:postcode": null, "addr:housenumber": null, "addr:city": null, "fee": null, "operator": null, "access": null, "name": null, "bicycle": null }, "geometry": { "type": "Point", "coordinates": [ -81.9283902, 35.9325353 ] } },
{ "type": "Feature", "properties": { "full_id": "n9505875137", "osm_id": "9505875137", "osm_type": "node", "highway": "trailhead", "addr:street": null, "addr:state": null, "addr:postcode": null, "addr:housenumber": null, "addr:city": null, "fee": null, "operator": "Cherokee National Forest", "access": null, "name": "Laurel Fork Trailhead", "bicycle": null }, "geometry": { "type": "Point", "coordinates": [ -82.1521241, 36.285403 ] } },
{ "type": "Feature", "properties": { "full_id": "n10684214641", "osm_id": "10684214641", "osm_type": "node", "highway": "trailhead", "addr:street": null, "addr:state": null, "addr:postcode": null, "addr:housenumber": null, "addr:city": null, "fee": "no", "operator": null, "access": "yes", "name": null, "bicycle": null }, "geometry": { "type": "Point", "coordinates": [ -81.8150106, 36.0077612 ] } },
{ "type": "Feature", "properties": { "full_id": "n11336864995", "osm_id": "11336864995", "osm_type": "node", "highway": "trailhead", "addr:street": "1st Avenue", "addr:state": "TN", "addr:postcode": "37658", "addr:housenumber": "717", "addr:city": "Hampton", "fee": "no", "operator": "City of Elizabethton", "access": "yes", "name": "Hampton Watershed Trails", "bicycle": null }, "geometry": { "type": "Point", "coordinates": [ -82.1740561, 36.2797311 ] } },
{ "type": "Feature", "properties": { "full_id": "n12566960900", "osm_id": "12566960900", "osm_type": "node", "highway": "trailhead", "addr:street": null, "addr:state": null, "addr:postcode": null, "addr:housenumber": null, "addr:city": null, "fee": null, "operator": "Doe Mountain Recreation Area", "access": null, "name": "Morfield Trailhead", "bicycle": null }, "geometry": { "type": "Point", "coordinates": [ -81.9088148, 36.3946714 ] } },
{ "type": "Feature", "properties": { "full_id": "n12737960197", "osm_id": "12737960197", "osm_type": "node", "highway": "trailhead", "addr:street": null, "addr:state": null, "addr:postcode": null, "addr:housenumber": null, "addr:city": null, "fee": null, "operator": null, "access": null, "name": "Sims Creek Overlook", "bicycle": null }, "geometry": { "type": "Point", "coordinates": [ -81.7112737, 36.1457905 ] } }
]
}
