{
"type": "FeatureCollection",
"name": "winery",
"crs": { "type": "name", "properties": { "name": "urn:ogc:def:crs:OGC:1.3:CRS84" } },
"features": [
{ "type": "Feature", "properties": { "full_id": "n8285329645", "osm_id": "8285329645", "osm_type": "node", "craft": "winery", "website": null, "phone": "+13363592995", "name": "Thistle Meadow Winery", "addr:street": "Thistle Meadow", "addr:state": "NC", "addr:postcode": "28644", "addr:housenumber": "102", "addr:city": "Laurel Springs" }, "geometry": { "type": "Point", "coordinates": [ -81.2501604, 36.4172898 ] } },
{ "type": "Feature", "properties": { "full_id": "n9907641254", "osm_id": "9907641254", "osm_type": "node", "craft": "winery", "website": null, "phone": "+18287651400", "name": "Linville Falls Winery", "addr:street": "Linville Falls Highway", "addr:state": "NC", "addr:postcode": "28657", "addr:housenumber": "9557", "addr:city": "Newland" }, "geometry": { "type": "Point", "coordinates": [ -81.9569663, 35.9702967 ] } },
{ "type": "Feature", "properties": { "full_id": "n10049209257", "osm_id": "10049209257", "osm_type": "node", "craft": "winery", "website": null, "phone": "+13369572332", "name": "Roaring River Vineyards", "addr:street": "Brewer Mill Road", "addr:state": "NC", "addr:postcode": "28685", "addr:housenumber": "493", "addr:city": "Traphill" }, "geometry": { "type": "Point", "coordinates": [ -81.0503721, 36.3182475 ] } },
{ "type": "Feature", "properties": { "full_id": "n10302490952", "osm_id": "10302490952", "osm_type": "node", "craft": "winery", "website": "https://grandfathervineyard.com", "phone": "+1-828-963-2400", "name": "Grandfather Vineyard & Winery", "addr:street": "Vineyard Lane", "addr:state": "NC", "addr:postcode": "28604", "addr:housenumber": "225", "addr:city": "Banner Elk" }, "geometry": { "type": "Point", "coordinates": [ -81.7891655, 36.1494598 ] } },
{ "type": "Feature", "properties": { "full_id": "n11104744807", "osm_id": "11104744807", "osm_type": "node", "craft": "winery", "website": null, "phone": "+18289292130", "name": "Moonjoy Meadery", "addr:street": "West Avenue Northwest", "addr:state": "NC", "addr:postcode": "28645", "addr:housenumber": "902", "addr:city": "Lenoir" }, "geometry": { "type": "Point", "coordinates": [ -81.5407824, 35.9146672 ] } }
]
}
